STARLINK-5608           
1 55353U 23013Y   25268.28904207 -.00000567  00000+0 -26896-4 0  9999
2 55353  43.0041 118.6567 0001368 263.0105  97.0582 15.02533458146833
STARLINK-5649           
1 55354U 23013Z   25267.97441293 -.00000406  00000+0 -14954-4 0  9990
2 55354  43.0020 120.5995 0001401 265.9657  94.1025 15.02534904146780
STARLINK-5647           
1 55355U 23013AA  25267.29964020  .00000263  00000+0  34549-4 0  9995
2 55355  43.0044 124.1208 0001060 271.5147  88.5574 15.02532969146675
STARLINK-5651           
1 55357U 23013AC  25267.96553558  .00001444  00000+0  12193-3 0  9993
2 55357  43.0062 120.5309 0001211 273.2706  86.7998 15.02543531146786
STARLINK-5622           
1 55358U 23013AD  25267.30297749 -.00000749  00000+0 -40416-4 0  9998
2 55358  43.0032 124.1613 0001206 270.1332  89.9372 15.02528679146683
STARLINK-5641           
1 55359U 23013AE  25267.96218812 -.00019038  00000+0 -13950-2 0  9997
2 55359  43.0039 120.5051 0001550 252.3502 107.7171 15.02618141146781
STARLINK-5664           
1 55360U 23013AF  25267.94529394 -.00000067  00000+0  10134-4 0  9991
2 55360  43.0045 133.3690 0001084 268.5887  91.4831 15.02534210146638
STARLINK-5665           
1 55361U 23013AG  25267.97355659  .00001783  00000+0  14702-3 0  9995
2 55361  43.0019 107.5871 0001272 264.9979  95.0718 15.02545645146936
STARLINK-5574           
1 55362U 23013AH  25267.25340069 -.00000438  00000+0 -17335-4 0  9990
2 55362  43.0058 111.6396 0001230 266.3058  93.7644 15.02534475146826
STARLINK-5627           
1 55364U 23013AK  25267.29520693 -.00001375  00000+0 -86715-4 0  9998
2 55364  43.0015 124.1018 0002535 219.5880 140.4778 15.02531138146688
STARLINK-5639           
1 55365U 23013AL  25267.98525015  .00000727  00000+0  68878-4 0  9996
2 55365  43.0049 133.6711 0001145 269.9905  90.0806 15.02529367146632
STARLINK-5654           
1 55366U 23013AM  25268.25390866 -.00003975  00000+0 -27945-3 0  9991
2 55366  43.0033 106.2455 0001314 268.5104  91.5588 15.02522041146973
STARLINK-5635           
1 55367U 23013AN  25268.27054394  .00000640  00000+0  62409-4 0  9996
2 55367  43.0032 106.3649 0001427 267.7670  92.3009 15.02537934146977
STARLINK-5625           
1 55368U 23013AP  25267.97466888 -.00003348  00000+0 -23284-3 0  9995
2 55368  43.0057 107.5922 0001705 260.3584  99.7066 15.02538152146937
STARLINK-5644           
1 55369U 23013AQ  25267.98414527  .00000172  00000+0  27779-4 0  9994
2 55369  43.0029 133.6635 0001408 262.9081  97.1601 15.02526608146635
STARLINK-5027           
1 55370U 23013AR  25267.92210232 -.00013739  00000+0 -10023-2 0  9994
2 55370  43.0032 134.0597 0001623 272.4291  87.6365 15.02597570146627
