[{"OBJECT_NAME":"STARLINK-5608","OBJECT_ID":"2023-013Y","EPOCH":"2025-09-25T06:56:13.234848","MEAN_MOTION":15.02533458,"ECCENTRICITY":0.00013685,"INCLINATION":43.0041,"RA_OF_ASC_NODE":118.6567,"ARG_OF_PERICENTER":263.0105,"MEAN_ANOMALY":97.0582,"EPHEMERIS_TYPE":0,"CLASSIFICATION_TYPE":"U","NORAD_CAT_ID":55353,"ELEMENT_SET_NO":999,"REV_AT_EPOCH":14683,"BSTAR":-2.6895988e-5,"MEAN_MOTION_DOT":-5.67e-6,"MEAN_MOTION_DDOT":0},{"OBJECT_NAME":"STARLINK-5649","OBJECT_ID":"2023-013Z","EPOCH":"2025-09-24T23:23:09.277152","MEAN_MOTION":15.02534904,"ECCENTRICITY":0.00014014,"INCLINATION":43.002,"RA_OF_ASC_NODE":120.5995,"ARG_OF_PERICENTER":265.9657,"MEAN_ANOMALY":94.1025,"EPHEMERIS_TYPE":0,"CLASSIFICATION_TYPE":"U","NORAD_CAT_ID":55354,"ELEMENT_SET_NO":999,"REV_AT_EPOCH":14678,"BSTAR":-1.4954228e-5,"MEAN_MOTION_DOT":-4.06e-6,"MEAN_MOTION_DDOT":0},{"OBJECT_NAME":"STARLINK-5647","OBJECT_ID":"2023-013AA","EPOCH":"2025-09-24T07:11:28.913280","MEAN_MOTION":15.02532969,"ECCENTRICITY":0.000106,"INCLINATION":43.0044,"RA_OF_ASC_NODE":124.1208,"ARG_OF_PERICENTER":271.5147,"MEAN_ANOMALY":88.5574,"EPHEMERIS_TYPE":0,"CLASSIFICATION_TYPE":"U","NORAD_CAT_ID":55355,"ELEMENT_SET_NO":999,"REV_AT_EPOCH":14667,"BSTAR":3.454919e-5,"MEAN_MOTION_DOT":2.63e-6,"MEAN_MOTION_DDOT":0},{"OBJECT_NAME":"STARLINK-5651","OBJECT_ID":"2023-013AC","EPOCH":"2025-09-24T23:10:22.274112","MEAN_MOTION":15.02543531,"ECCENTRICITY":0.0001211,"INCLINATION":43.0062,"RA_OF_ASC_NODE":120.5309,"ARG_OF_PERICENTER":273.2706,"MEAN_ANOMALY":86.7998,"EPHEMERIS_TYPE":0,"CLASSIFICATION_TYPE":"U","NORAD_CAT_ID":55357,"ELEMENT_SET_NO":999,"REV_AT_EPOCH":14678,"BSTAR":0.00012192637,"MEAN_MOTION_DOT":1.444e-5,"MEAN_MOTION_DDOT":0},{"OBJECT_NAME":"STARLINK-5622","OBJECT_ID":"2023-013AD","EPOCH":"2025-09-24T07:16:17.255136","MEAN_MOTION":15.02528679,"ECCENTRICITY":0.00012061,"INCLINATION":43.0032,"RA_OF_ASC_NODE":124.1613,"ARG_OF_PERICENTER":270.1332,"MEAN_ANOMALY":89.9372,"EPHEMERIS_TYPE":0,"CLASSIFICATION_TYPE":"U","NORAD_CAT_ID":55358,"ELEMENT_SET_NO":999,"REV_AT_EPOCH":14668,"BSTAR":-4.0416362e-5,"MEAN_MOTION_DOT":-7.49e-6,"MEAN_MOTION_DDOT":0},{"OBJECT_NAME":"STARLINK-5641","OBJECT_ID":"2023-013AE","EPOCH":"2025-09-24T23:05:33.053568","MEAN_MOTION":15.02618141,"ECCENTRICITY":0.00015507,"INCLINATION":43.0039,"RA_OF_ASC_NODE":120.5051,"ARG_OF_PERICENTER":252.3502,"MEAN_ANOMALY":107.7171,"EPHEMERIS_TYPE":0,"CLASSIFICATION_TYPE":"U","NORAD_CAT_ID":55359,"ELEMENT_SET_NO":999,"REV_AT_EPOCH":14678,"BSTAR":-0.0013950074,"MEAN_MOTION_DOT":-0.00019038,"MEAN_MOTION_DDOT":0},{"OBJECT_NAME":"STARLINK-5664","OBJECT_ID":"2023-013AF","EPOCH":"2025-09-24T22:41:13.396416","MEAN_MOTION":15.0253421,"ECCENTRICITY":0.00010848,"INCLINATION":43.0045,"RA_OF_ASC_NODE":133.369,"ARG_OF_PERICENTER":268.5887,"MEAN_ANOMALY":91.4831,"EPHEMERIS_TYPE":0,"CLASSIFICATION_TYPE":"U","NORAD_CAT_ID":55360,"ELEMENT_SET_NO":999,"REV_AT_EPOCH":14663,"BSTAR":1.0133991e-5,"MEAN_MOTION_DOT":-6.7e-7,"MEAN_MOTION_DDOT":0},{"OBJECT_NAME":"STARLINK-5665","OBJECT_ID":"2023-013AG","EPOCH":"2025-09-24T23:21:55.289376","MEAN_MOTION":15.02545645,"ECCENTRICITY":0.00012728,"INCLINATION":43.0019,"RA_OF_ASC_NODE":107.5871,"ARG_OF_PERICENTER":264.9979,"MEAN_ANOMALY":95.0718,"EPHEMERIS_TYPE":0,"CLASSIFICATION_TYPE":"U","NORAD_CAT_ID":55361,"ELEMENT_SET_NO":999,"REV_AT_EPOCH":14693,"BSTAR":0.00014701753,"MEAN_MOTION_DOT":1.783e-5,"MEAN_MOTION_DDOT":0},{"OBJECT_NAME":"STARLINK-5574","OBJECT_ID":"2023-013AH","EPOCH":"2025-09-24T06:04:53.819616","MEAN_MOTION":15.02534475,"ECCENTRICITY":0.00012303,"INCLINATION":43.0058,"RA_OF_ASC_NODE":111.6396,"ARG_OF_PERICENTER":266.3058,"MEAN_ANOMALY":93.7644,"EPHEMERIS_TYPE":0,"CLASSIFICATION_TYPE":"U","NORAD_CAT_ID":55362,"ELEMENT_SET_NO":999,"REV_AT_EPOCH":14682,"BSTAR":-1.7335254e-5,"MEAN_MOTION_DOT":-4.38e-6,"MEAN_MOTION_DDOT":0},{"OBJECT_NAME":"STARLINK-5627","OBJECT_ID":"2023-013AK","EPOCH":"2025-09-24T07:05:05.878752","MEAN_MOTION":15.02531138,"ECCENTRICITY":0.0002535,"INCLINATION":43.0015,"RA_OF_ASC_NODE":124.1018,"ARG_OF_PERICENTER":219.588,"MEAN_ANOMALY":140.4778,"EPHEMERIS_TYPE":0,"CLASSIFICATION_TYPE":"U","NORAD_CAT_ID":55364,"ELEMENT_SET_NO":999,"REV_AT_EPOCH":14668,"BSTAR":-8.6715356e-5,"MEAN_MOTION_DOT":-1.375e-5,"MEAN_MOTION_DDOT":0},{"OBJECT_NAME":"STARLINK-5639","OBJECT_ID":"2023-013AL","EPOCH":"2025-09-24T23:38:45.612960","MEAN_MOTION":15.02529367,"ECCENTRICITY":0.00011453,"INCLINATION":43.0049,"RA_OF_ASC_NODE":133.6711,"ARG_OF_PERICENTER":269.9905,"MEAN_ANOMALY":90.0806,"EPHEMERIS_TYPE":0,"CLASSIFICATION_TYPE":"U","NORAD_CAT_ID":55365,"ELEMENT_SET_NO":999,"REV_AT_EPOCH":14663,"BSTAR":6.8877736e-5,"MEAN_MOTION_DOT":7.27e-6,"MEAN_MOTION_DDOT":0},{"OBJECT_NAME":"STARLINK-5654","OBJECT_ID":"2023-013AM","EPOCH":"2025-09-25T06:05:37.708224","MEAN_MOTION":15.02522041,"ECCENTRICITY":0.00013145,"INCLINATION":43.0033,"RA_OF_ASC_NODE":106.2455,"ARG_OF_PERICENTER":268.5104,"MEAN_ANOMALY":91.5588,"EPHEMERIS_TYPE":0,"CLASSIFICATION_TYPE":"U","NORAD_CAT_ID":55366,"ELEMENT_SET_NO":999,"REV_AT_EPOCH":14697,"BSTAR":-0.00027945159,"MEAN_MOTION_DOT":-3.975e-5,"MEAN_MOTION_DDOT":0},{"OBJECT_NAME":"STARLINK-5635","OBJECT_ID":"2023-013AN","EPOCH":"2025-09-25T06:29:34.996416","MEAN_MOTION":15.02537934,"ECCENTRICITY":0.00014277,"INCLINATION":43.0032,"RA_OF_ASC_NODE":106.3649,"ARG_OF_PERICENTER":267.767,"MEAN_ANOMALY":92.3009,"EPHEMERIS_TYPE":0,"CLASSIFICATION_TYPE":"U","NORAD_CAT_ID":55367,"ELEMENT_SET_NO":999,"REV_AT_EPOCH":14697,"BSTAR":6.24088e-5,"MEAN_MOTION_DOT":6.4e-6,"MEAN_MOTION_DDOT":0},{"OBJECT_NAME":"STARLINK-5625","OBJECT_ID":"2023-013AP","EPOCH":"2025-09-24T23:23:31.391232","MEAN_MOTION":15.02538152,"ECCENTRICITY":0.00017052,"INCLINATION":43.0057,"RA_OF_ASC_NODE":107.5922,"ARG_OF_PERICENTER":260.3584,"MEAN_ANOMALY":99.7066,"EPHEMERIS_TYPE":0,"CLASSIFICATION_TYPE":"U","NORAD_CAT_ID":55368,"ELEMENT_SET_NO":999,"REV_AT_EPOCH":14693,"BSTAR":-0.00023283676,"MEAN_MOTION_DOT":-3.348e-5,"MEAN_MOTION_DDOT":0},{"OBJECT_NAME":"STARLINK-5644","OBJECT_ID":"2023-013AQ","EPOCH":"2025-09-24T23:37:10.151328","MEAN_MOTION":15.02526608,"ECCENTRICITY":0.00014085,"INCLINATION":43.0029,"RA_OF_ASC_NODE":133.6635,"ARG_OF_PERICENTER":262.9081,"MEAN_ANOMALY":97.1601,"EPHEMERIS_TYPE":0,"CLASSIFICATION_TYPE":"U","NORAD_CAT_ID":55369,"ELEMENT_SET_NO":999,"REV_AT_EPOCH":14663,"BSTAR":2.7778523e-5,"MEAN_MOTION_DOT":1.72e-6,"MEAN_MOTION_DDOT":0},{"OBJECT_NAME":"STARLINK-5027","OBJECT_ID":"2023-013AR","EPOCH":"2025-09-24T22:07:49.640448","MEAN_MOTION":15.0259757,"ECCENTRICITY":0.00016236,"INCLINATION":43.0032,"RA_OF_ASC_NODE":134.0597,"ARG_OF_PERICENTER":272.4291,"MEAN_ANOMALY":87.6365,"EPHEMERIS_TYPE":0,"CLASSIFICATION_TYPE":"U","NORAD_CAT_ID":55370,"ELEMENT_SET_NO":999,"REV_AT_EPOCH":14662,"BSTAR":-0.0010023032,"MEAN_MOTION_DOT":-0.00013739,"MEAN_MOTION_DDOT":0}]
